0 FENGYUN 1C DEB
1 31065U 99025BFK 13281.34055242  .00000789  00000-0  41770-3 0  2810
2 31065 098.9199 316.3185 0042044 269.8658 089.7836 14.16223493342350
0 FENGYUN 1C DEB
1 31065U 99025BFK 13283.88393659  .00000805  00000-0  42597-3 0  2826
2 31065 098.9232 318.8807 0040584 262.1516 097.5489 14.16228659342712
0 FENGYUN 1C DEB
1 31065U 99025BFK 13284.30782503  .00000844  00000-0  44519-3 0  2834
2 31065 098.9190 319.2883 0040888 261.2229 098.5015 14.16231372342770
0 FENGYUN 1C DEB
1 31065U 99025BFK 13286.35663925  .00000851  00000-0  44863-3 0  2848
2 31065 098.9187 321.3393 0041193 255.7725 103.8880 14.16235372343062
0 FENGYUN 1C DEB
1 31065U 99025BFK 13289.88909637  .00000874  00000-0  46050-3 0  2858
2 31065 098.9217 324.8918 0040485 245.0007 114.7499 14.16242798343567
0 FENGYUN 1C DEB
1 31065U 99025BFK 13290.31297918  .00000915  00000-0  48089-3 0  2861
2 31065 098.9194 325.3042 0040767 242.1974 117.5957 14.16245811343625
0 FENGYUN 1C DEB
1 31065U 99025BFK 13291.86723349  .00000935  00000-0  49106-3 0  2878
2 31065 098.9211 326.8646 0040305 236.1061 123.6674 14.16249800343849
0 FENGYUN 1C DEB
1 31065U 99025BFK 13293.91603040  .00000959  00000-0  50286-3 0  2889
2 31065 098.9220 328.9184 0040160 229.2874 130.4960 14.16254796344130
0 FENGYUN 1C DEB
1 31065U 99025BFK 13295.32898940  .00001005  00000-0  52567-3 0  2899
2 31065 098.9211 330.3324 0041659 225.2837 134.5608 14.16259973344330
